0 BREEZE-M DEB
1 38970U 12044DD  13282.16874559  .00789393  69887-4  10082-1 0  5235
2 38970 050.3886 196.3137 1243407 203.6534 150.2095 13.17705460 40407
0 BREEZE-M DEB
1 38970U 12044DD  13282.77521900  .00686953  54143-4  87433-2 0  5244
2 38970 050.3891 194.1310 1239383 205.4054 148.0567 13.18636841 40481
0 BREEZE-M DEB
1 38970U 12044DD  13283.15405747  .00675065  52493-4  86044-2 0  5253
2 38970 050.3892 192.7671 1237167 206.5207 146.6899 13.19099383 40539
0 BREEZE-M DEB
1 38970U 12044DD  13284.13839941  .00646250  48612-4  82250-2 0  5267
2 38970 050.3896 189.2175 1231960 209.4078 143.1683 13.20257277 40663
0 BREEZE-M DEB
1 38970U 12044DD  13286.10459925  .00600339  42791-4  75578-2 0  5283
2 38970 050.3913 182.1067 1222610 215.1627 136.2315 13.22457638 40920
0 BREEZE-M DEB
1 38970U 12044DD  13287.08649765  .00570533  39207-4  71552-2 0  5293
2 38970 050.3926 178.5467 1218159 218.0534 132.7925 13.23486105 41054
0 BREEZE-M DEB
1 38970U 12044DD  13288.06759891  .00745119  63557-4  92756-2 0  5304
2 38970 050.3933 174.9832 1212785 220.9278 129.4140 13.24757646 41182
0 BREEZE-M DEB
1 38970U 12044DD  13289.04769864  .00671977  52693-4  83725-2 0  5310
2 38970 050.3954 171.4168 1206851 223.8133 126.0621 13.26042631 41313
0 BREEZE-M DEB
1 38970U 12044DD  13289.65039217  .00666602  51993-4  82614-2 0  5327
2 38970 050.3933 169.2208 1204194 225.5886 124.0085 13.26700562 41396
0 BREEZE-M DEB
1 38970U 12044DD  13290.62909198  .00668681  52406-4  82172-2 0  5339
2 38970 050.3892 165.6491 1199236 228.4787 120.6999 13.27906454 41526
0 BREEZE-M DEB
1 38970U 12044DD  13291.00527879  .00616412  45315-4  75570-2 0  5345
2 38970 050.3890 164.2743 1197074 229.6000 119.4285 13.28415808 41576
0 BREEZE-M DEB
1 38970U 12044DD  13293.03460587  .00577771  40591-4  69231-2 0  5355
2 38970 050.3925 156.8406 1188439 235.6463 112.6368 13.30637700 41840
0 BREEZE-M DEB
1 38970U 12044DD  13293.63526422  .00592217  42437-4  71660-2 0  5365
2 38970 050.3898 154.6393 1184986 237.4112 110.6943 13.31248290 41923
0 BREEZE-M DEB
1 38970U 12044DD  13294.01052492  .00596527  43014-4  72388-2 0  5378
2 38970 050.3894 153.2618 1183040 238.5334 109.4639 13.31631325 41970
0 BREEZE-M DEB
1 38970U 12044DD  13294.98567445  .00586580  41843-4  70840-2 0  5381
2 38970 050.3909 149.6755 1178591 241.4437 106.2925 13.32674169 42103
0 BREEZE-M DEB
1 38970U 12044DD  13295.58540325  .00591491  42514-4  71161-2 0  5397
2 38970 050.3913 147.4672 1175990 243.2199 104.3741 13.33297990 42184
0 BREEZE-M DEB
1 38970U 12044DD  13295.96008515  .00598841  43491-4  72147-2 0  5407
2 38970 050.3893 146.0868 1173808 244.3293 103.1892 13.33753641 42236
